{"type": "FeatureCollection", "features": [ {"type": "Feature", "properties": {"norad_id": 66475, "name": "STARLINK-35538", "group": "last-30-days", "lat": -40.865204792469754, "lon": 14.255308257102678, "alt_km": 416.8501908858634, "timestamp": "2025-12-10T18:56:58.832227+00:00", "meta": {"OBJECT_NAME": "STARLINK-35538", "OBJECT_ID": "2025-262V", "EPOCH": "2025-12-10T11:32:12.573312", "MEAN_MOTION": 15.50617619, "ECCENTRICITY": 0.0001769, "INCLINATION": 43.0012, "RA_OF_ASC_NODE": 84.2494, "ARG_OF_PERICENTER": 270.8556, "MEAN_ANOMALY": 89.2101, "EPHEMERIS_TYPE": 0, "CLASSIFICATION_TYPE": "U", "NORAD_CAT_ID": 66475, "ELEMENT_SET_NO": 999, "REV_AT_EPOCH": 521, "BSTAR": 0.0017436, "MEAN_MOTION_DOT": 0.00103454, "MEAN_MOTION_DDOT": 0}, "tle": {"line1": "1 66475U 25262V   25344.48070108  .00103454  00000+0  17436-2 0  9990", "line2": "2 66475  43.0012  84.2494 0001769 270.8556  89.2101 15.50617619  5217"}}, "geometry": {"type": "Point", "coordinates": [14.255308257102678, -40.865204792469754]}}, {"type": "Feature", "properties": {"norad_id": 66476, "name": "STARLINK-35372", "group": "last-30-days", "lat": -40.36513053835162, "lon": 16.632441514230965, "alt_km": 416.89702682487314, "timestamp": "2025-12-10T18:56:58.832240+00:00", "meta": {"OBJECT_NAME": "STARLINK-35372", "OBJECT_ID": "2025-262W", "EPOCH": "2025-12-10T11:31:43.089312", "MEAN_MOTION": 15.50593251, "ECCENTRICITY": 0.0001828, "INCLINATION": 43.001, "RA_OF_ASC_NODE": 84.2462, "ARG_OF_PERICENTER": 268.3843, "MEAN_ANOMALY": 91.6808, "EPHEMERIS_TYPE": 0, "CLASSIFICATION_TYPE": "U", "NORAD_CAT_ID": 66476, "ELEMENT_SET_NO": 999, "REV_AT_EPOCH": 510, "BSTAR": 0.0016384, "MEAN_MOTION_DOT": 0.00097025, "MEAN_MOTION_DDOT": 0}, "tle": {"line1": "1 66476U 25262W   25344.48035983  .00097025  00000+0  16384-2 0  9990", "line2": "2 66476  43.0010  84.2462 0001828 268.3843  91.6808 15.50593251  5102"}}, "geometry": {"type": "Point", "coordinates": [16.632441514230965, -40.36513053835162]}}, {"type": "Feature", "properties": {"norad_id": 66477, "name": "STARLINK-35354", "group": "last-30-days", "lat": -39.190354495100486, "lon": 21.390760603937522, "alt_km": 417.0055035432533, "timestamp": "2025-12-10T18:56:58.832250+00:00", "meta": {"OBJECT_NAME": "STARLINK-35354", "OBJECT_ID": "2025-262X", "EPOCH": "2025-12-10T11:30:43.786944", "MEAN_MOTION": 15.50606074, "ECCENTRICITY": 0.0001501, "INCLINATION": 43.0002, "RA_OF_ASC_NODE": 84.2397, "ARG_OF_PERICENTER": 273.5387, "MEAN_ANOMALY": 86.5301, "EPHEMERIS_TYPE": 0, "CLASSIFICATION_TYPE": "U", "NORAD_CAT_ID": 66477, "ELEMENT_SET_NO": 999, "REV_AT_EPOCH": 521, "BSTAR": 0.0016916, "MEAN_MOTION_DOT": 0.00100274, "MEAN_MOTION_DDOT": 0}, "tle": {"line1": "1 66477U 25262X   25344.47967346  .00100274  00000+0  16916-2 0  9999", "line2": "2 66477  43.0002  84.2397 0001501 273.5387  86.5301 15.50606074  5211"}}, "geometry": {"type": "Point", "coordinates": [21.390760603937522, -39.190354495100486]}}, {"type": "Feature", "properties": {"norad_id": 66478, "name": "STARLINK-35283", "group": "last-30-days", "lat": -38.53774193687315, "lon": 23.68910102251214, "alt_km": 416.7988852352246, "timestamp": "2025-12-10T18:56:58.832260+00:00", "meta": {"OBJECT_NAME": "STARLINK-35283", "OBJECT_ID": "2025-262Y", "EPOCH": "2025-12-10T11:30:14.296032", "MEAN_MOTION": 15.50605002, "ECCENTRICITY": 0.0001721, "INCLINATION": 43.0004, "RA_OF_ASC_NODE": 84.2369, "ARG_OF_PERICENTER": 275.9464, "MEAN_ANOMALY": 84.12, "EPHEMERIS_TYPE": 0, "CLASSIFICATION_TYPE": "U", "NORAD_CAT_ID": 66478, "ELEMENT_SET_NO": 999, "REV_AT_EPOCH": 521, "BSTAR": 0.0020069, "MEAN_MOTION_DOT": 0.00119316, "MEAN_MOTION_DDOT": 0}, "tle": {"line1": "1 66478U 25262Y   25344.47933213  .00119316  00000+0  20069-2 0  9997", "line2": "2 66478  43.0004  84.2369 0001721 275.9464  84.1200 15.50605002  5211"}}, "geometry": {"type": "Point", "coordinates": [23.68910102251214, -38.53774193687315]}}, {"type": "Feature", "properties": {"norad_id": 66479, "name": "STARLINK-35581", "group": "last-30-days", "lat": -39.7920008163902, "lon": 19.073882059047058, "alt_km": 416.72809778886585, "timestamp": "2025-12-10T18:56:58.832270+00:00", "meta": {"OBJECT_NAME": "STARLINK-35581", "OBJECT_ID": "2025-262Z", "EPOCH": "2025-12-10T11:31:13.291680", "MEAN_MOTION": 15.50620871, "ECCENTRICITY": 0.000183, "INCLINATION": 43.0008, "RA_OF_ASC_NODE": 84.243, "ARG_OF_PERICENTER": 277.3252, "MEAN_ANOMALY": 82.74, "EPHEMERIS_TYPE": 0, "CLASSIFICATION_TYPE": "U", "NORAD_CAT_ID": 66479, "ELEMENT_SET_NO": 999, "REV_AT_EPOCH": 521, "BSTAR": 0.001868, "MEAN_MOTION_DOT": 0.00110976, "MEAN_MOTION_DDOT": 0}, "tle": {"line1": "1 66479U 25262Z   25344.48001495  .00110976  00000+0  18680-2 0  9996", "line2": "2 66479  43.0008  84.2430 0001830 277.3252  82.7400 15.50620871  5214"}}, "geometry": {"type": "Point", "coordinates": [19.073882059047058, -39.7920008163902]}}, {"type": "Feature", "properties": {"norad_id": 66480, "name": "STARLINK-35670", "group": "last-30-days", "lat": -37.83677097863203, "lon": 25.957089841698465, "alt_km": 416.7242483716209, "timestamp": "2025-12-10T18:56:58.832280+00:00", "meta": {"OBJECT_NAME": "STARLINK-35670", "OBJECT_ID": "2025-262AA", "EPOCH": "2025-12-10T11:29:44.666016", "MEAN_MOTION": 15.50607667, "ECCENTRICITY": 0.0001714, "INCLINATION": 43.0005, "RA_OF_ASC_NODE": 84.2342, "ARG_OF_PERICENTER": 282.5055, "MEAN_ANOMALY": 77.5613, "EPHEMERIS_TYPE": 0, "CLASSIFICATION_TYPE": "U", "NORAD_CAT_ID": 66480, "ELEMENT_SET_NO": 999, "REV_AT_EPOCH": 521, "BSTAR": 0.002156, "MEAN_MOTION_DOT": 0.00128365, "MEAN_MOTION_DDOT": 0}, "tle": {"line1": "1 66480U 25262AA  25344.47898919  .00128365  00000+0  21560-2 0  9994", "line2": "2 66480  43.0005  84.2342 0001714 282.5055  77.5613 15.50607667  5211"}}, "geometry": {"type": "Point", "coordinates": [25.957089841698465, -37.83677097863203]}}, {"type": "Feature", "properties": {"norad_id": 66481, "name": "STARLINK-35698", "group": "last-30-days", "lat": -37.096856285924694, "lon": 28.16910885341462, "alt_km": 416.734669360495, "timestamp": "2025-12-10T18:56:58.832290+00:00", "meta": {"OBJECT_NAME": "STARLINK-35698", "OBJECT_ID": "2025-262AB", "EPOCH": "2025-12-10T11:29:14.970336", "MEAN_MOTION": 15.50605276, "ECCENTRICITY": 0.0001733, "INCLINATION": 43.0006, "RA_OF_ASC_NODE": 84.2308, "ARG_OF_PERICENTER": 281.2213, "MEAN_ANOMALY": 78.8452, "EPHEMERIS_TYPE": 0, "CLASSIFICATION_TYPE": "U", "NORAD_CAT_ID": 66481, "ELEMENT_SET_NO": 999, "REV_AT_EPOCH": 521, "BSTAR": 0.0017986, "MEAN_MOTION_DOT": 0.00106726, "MEAN_MOTION_DDOT": 0}, "tle": {"line1": "1 66481U 25262AB  25344.47864549  .00106726  00000+0  17986-2 0  9991", "line2": "2 66481  43.0006  84.2308 0001733 281.2213  78.8452 15.50605276  5217"}}, "geometry": {"type": "Point", "coordinates": [28.16910885341462, -37.096856285924694]}}, {"type": "Feature", "properties": {"norad_id": 66482, "name": "STARLINK-35648", "group": "last-30-days", "lat": -36.306162671533286, "lon": 30.36453760636473, "alt_km": 416.63751440613487, "timestamp": "2025-12-10T18:56:58.832300+00:00", "meta": {"OBJECT_NAME": "STARLINK-35648", "OBJECT_ID": "2025-262AC", "EPOCH": "2025-12-10T11:28:45.271200", "MEAN_MOTION": 15.50614152, "ECCENTRICITY": 0.0001746, "INCLINATION": 43.0004, "RA_OF_ASC_NODE": 84.228, "ARG_OF_PERICENTER": 283.0323, "MEAN_ANOMALY": 77.0342, "EPHEMERIS_TYPE": 0, "CLASSIFICATION_TYPE": "U", "NORAD_CAT_ID": 66482, "ELEMENT_SET_NO": 999, "REV_AT_EPOCH": 505, "BSTAR": 0.0020174, "MEAN_MOTION_DOT": 0.00119994, "MEAN_MOTION_DDOT": 0}, "tle": {"line1": "1 66482U 25262AC  25344.47830175  .00119994  00000+0  20174-2 0  9994", "line2": "2 66482  43.0004  84.2280 0001746 283.0323  77.0342 15.50614152  5055"}}, "geometry": {"type": "Point", "coordinates": [30.36453760636473, -36.306162671533286]}}, {"type": "Feature", "properties": {"norad_id": 66483, "name": "STARLINK-35654", "group": "last-30-days", "lat": -35.487683940423956, "lon": 32.485856337613505, "alt_km": 416.3042964948654, "timestamp": "2025-12-10T18:56:58.832312+00:00", "meta": {"OBJECT_NAME": "STARLINK-35654", "OBJECT_ID": "2025-262AD", "EPOCH": "2025-12-10T11:28:15.727584", "MEAN_MOTION": 15.50613219, "ECCENTRICITY": 0.0002133, "INCLINATION": 43.0007, "RA_OF_ASC_NODE": 84.2245, "ARG_OF_PERICENTER": 288.4132, "MEAN_ANOMALY": 71.6496, "EPHEMERIS_TYPE": 0, "CLASSIFICATION_TYPE": "U", "NORAD_CAT_ID": 66483, "ELEMENT_SET_NO": 999, "REV_AT_EPOCH": 521, "BSTAR": 0.0022037, "MEAN_MOTION_DOT": 0.00131294, "MEAN_MOTION_DDOT": 0}, "tle": {"line1": "1 66483U 25262AD  25344.47795981  .00131294  00000+0  22037-2 0  9997", "line2": "2 66483  43.0007  84.2245 0002133 288.4132  71.6496 15.50613219  5219"}}, "geometry": {"type": "Point", "coordinates": [32.485856337613505, -35.487683940423956]}}, {"type": "Feature", "properties": {"norad_id": 66484, "name": "STARLINK-35371", "group": "last-30-days", "lat": -34.62659627225704, "lon": 34.578531223117515, "alt_km": 416.5771761001088, "timestamp": "2025-12-10T18:56:58.832322+00:00", "meta": {"OBJECT_NAME": "STARLINK-35371", "OBJECT_ID": "2025-262AE", "EPOCH": "2025-12-10T11:27:45.981792", "MEAN_MOTION": 15.5061093, "ECCENTRICITY": 0.0001776, "INCLINATION": 43.0006, "RA_OF_ASC_NODE": 84.2228, "ARG_OF_PERICENTER": 281.3299, "MEAN_ANOMALY": 78.7361, "EPHEMERIS_TYPE": 0, "CLASSIFICATION_TYPE": "U", "NORAD_CAT_ID": 66484, "ELEMENT_SET_NO": 999, "REV_AT_EPOCH": 521, "BSTAR": 0.0019759, "MEAN_MOTION_DOT": 0.00117463, "MEAN_MOTION_DDOT": 0}, "tle": {"line1": "1 66484U 25262AE  25344.47761553  .00117463  00000+0  19759-2 0  9995", "line2": "2 66484  43.0006  84.2228 0001776 281.3299  78.7361 15.50610930  5214"}}, "geometry": {"type": "Point", "coordinates": [34.578531223117515, -34.62659627225704]}}]}